[{"OBJECT_NAME":"CUTE-1.7+APD II (CO-65)","OBJECT_ID":"2008-021C","EPOCH":"2026-04-05T05:53:33.487872","MEAN_MOTION":15.08760642,"ECCENTRICITY":0.00071778,"INCLINATION":97.8239,"RA_OF_ASC_NODE":75.2076,"ARG_OF_PERICENTER":278.9265,"MEAN_ANOMALY":81.115,"EPHEMERIS_TYPE":0,"CLASSIFICATION_TYPE":"U","NORAD_CAT_ID":32785,"ELEMENT_SET_NO":999,"REV_AT_EPOCH":97419,"BSTAR":0.0004598871,"MEAN_MOTION_DOT":7.163e-5,"MEAN_MOTION_DDOT":0},{"OBJECT_NAME":"SEEDS II (CO-66)","OBJECT_ID":"2008-021J","EPOCH":"2026-04-05T05:14:19.768704","MEAN_MOTION":15.30294749,"ECCENTRICITY":0.00030153,"INCLINATION":97.7527,"RA_OF_ASC_NODE":89.7798,"ARG_OF_PERICENTER":158.9144,"MEAN_ANOMALY":201.222,"EPHEMERIS_TYPE":0,"CLASSIFICATION_TYPE":"U","NORAD_CAT_ID":32791,"ELEMENT_SET_NO":999,"REV_AT_EPOCH":97612,"BSTAR":0.00081081396,"MEAN_MOTION_DOT":0.00023732,"MEAN_MOTION_DDOT":0},{"OBJECT_NAME":"YUBILEINY (RS30)","OBJECT_ID":"2008-025A","EPOCH":"2026-04-05T06:22:40.189152","MEAN_MOTION":12.43177068,"ECCENTRICITY":0.0020413,"INCLINATION":82.5058,"RA_OF_ASC_NODE":40.7894,"ARG_OF_PERICENTER":108.5712,"MEAN_ANOMALY":251.7587,"EPHEMERIS_TYPE":0,"CLASSIFICATION_TYPE":"U","NORAD_CAT_ID":32953,"ELEMENT_SET_NO":999,"REV_AT_EPOCH":81063,"BSTAR":0.00026262255,"MEAN_MOTION_DOT":4.7e-7,"MEAN_MOTION_DDOT":0},{"OBJECT_NAME":"KKS-1 (KISEKI)","OBJECT_ID":"2009-002H","EPOCH":"2026-04-05T04:27:43.496640","MEAN_MOTION":14.82934969,"ECCENTRICITY":0.00082399,"INCLINATION":98.1188,"RA_OF_ASC_NODE":16.4862,"ARG_OF_PERICENTER":157.1678,"MEAN_ANOMALY":202.9903,"EPHEMERIS_TYPE":0,"CLASSIFICATION_TYPE":"U","NORAD_CAT_ID":33499,"ELEMENT_SET_NO":999,"REV_AT_EPOCH":92537,"BSTAR":0.00031728411,"MEAN_MOTION_DOT":2.52e-5,"MEAN_MOTION_DDOT":0},{"OBJECT_NAME":"SWISSCUBE","OBJECT_ID":"2009-051B","EPOCH":"2026-04-05T05:34:14.303136","MEAN_MOTION":14.62337809,"ECCENTRICITY":0.00080896,"INCLINATION":98.4078,"RA_OF_ASC_NODE":1.8437,"ARG_OF_PERICENTER":80.6523,"MEAN_ANOMALY":279.5592,"EPHEMERIS_TYPE":0,"CLASSIFICATION_TYPE":"U","NORAD_CAT_ID":35932,"ELEMENT_SET_NO":999,"REV_AT_EPOCH":87849,"BSTAR":0.00036900898,"MEAN_MOTION_DOT":1.815e-5,"MEAN_MOTION_DDOT":0},{"OBJECT_NAME":"BEESAT-1","OBJECT_ID":"2009-051C","EPOCH":"2026-04-04T23:58:12.906336","MEAN_MOTION":14.61597876,"ECCENTRICITY":0.00065479,"INCLINATION":98.4009,"RA_OF_ASC_NODE":1.393,"ARG_OF_PERICENTER":92.8438,"MEAN_ANOMALY":267.3512,"EPHEMERIS_TYPE":0,"CLASSIFICATION_TYPE":"U","NORAD_CAT_ID":35933,"ELEMENT_SET_NO":999,"REV_AT_EPOCH":87849,"BSTAR":0.00029929827,"MEAN_MOTION_DOT":1.439e-5,"MEAN_MOTION_DDOT":0},{"OBJECT_NAME":"ITUPSAT1","OBJECT_ID":"2009-051E","EPOCH":"2026-04-05T04:47:50.678304","MEAN_MOTION":14.60328249,"ECCENTRICITY":0.00086737,"INCLINATION":98.4093,"RA_OF_ASC_NODE":0.8653,"ARG_OF_PERICENTER":102.3407,"MEAN_ANOMALY":257.8764,"EPHEMERIS_TYPE":0,"CLASSIFICATION_TYPE":"U","NORAD_CAT_ID":35935,"ELEMENT_SET_NO":999,"REV_AT_EPOCH":87808,"BSTAR":0.00029279853,"MEAN_MOTION_DOT":1.367e-5,"MEAN_MOTION_DDOT":0},{"OBJECT_NAME":"XIWANG-1 (HOPE-1)","OBJECT_ID":"2009-072B","EPOCH":"2026-04-05T06:49:59.870208","MEAN_MOTION":13.16438385,"ECCENTRICITY":0.00080358,"INCLINATION":100.3966,"RA_OF_ASC_NODE":50.3047,"ARG_OF_PERICENTER":43.5004,"MEAN_ANOMALY":316.6742,"EPHEMERIS_TYPE":0,"CLASSIFICATION_TYPE":"U","NORAD_CAT_ID":36122,"ELEMENT_SET_NO":999,"REV_AT_EPOCH":78341,"BSTAR":0.00058061383,"MEAN_MOTION_DOT":1.77e-6,"MEAN_MOTION_DDOT":0},{"OBJECT_NAME":"O/OREOS (USA 219)","OBJECT_ID":"2010-062C","EPOCH":"2026-04-04T20:33:43.161984","MEAN_MOTION":14.93442073,"ECCENTRICITY":0.00157677,"INCLINATION":71.9707,"RA_OF_ASC_NODE":246.4007,"ARG_OF_PERICENTER":212.3881,"MEAN_ANOMALY":147.6323,"EPHEMERIS_TYPE":0,"CLASSIFICATION_TYPE":"U","NORAD_CAT_ID":37224,"ELEMENT_SET_NO":999,"REV_AT_EPOCH":10569,"BSTAR":0.00040199205,"MEAN_MOTION_DOT":4.177e-5,"MEAN_MOTION_DDOT":0},{"OBJECT_NAME":"JUGNU","OBJECT_ID":"2011-058B","EPOCH":"2026-04-05T04:04:09.336864","MEAN_MOTION":14.13753627,"ECCENTRICITY":0.00184374,"INCLINATION":19.962,"RA_OF_ASC_NODE":32.0253,"ARG_OF_PERICENTER":350.5168,"MEAN_ANOMALY":40.3194,"EPHEMERIS_TYPE":0,"CLASSIFICATION_TYPE":"U","NORAD_CAT_ID":37839,"ELEMENT_SET_NO":999,"REV_AT_EPOCH":74868,"BSTAR":0.00015801979,"MEAN_MOTION_DOT":5.7e-6,"MEAN_MOTION_DDOT":0},{"OBJECT_NAME":"SRMSAT","OBJECT_ID":"2011-058D","EPOCH":"2026-04-04T10:23:26.853216","MEAN_MOTION":14.11557506,"ECCENTRICITY":0.00119205,"INCLINATION":19.9707,"RA_OF_ASC_NODE":145.885,"ARG_OF_PERICENTER":111.8741,"MEAN_ANOMALY":15.3851,"EPHEMERIS_TYPE":0,"CLASSIFICATION_TYPE":"U","NORAD_CAT_ID":37841,"ELEMENT_SET_NO":999,"REV_AT_EPOCH":74738,"BSTAR":0.00012313315,"MEAN_MOTION_DOT":4.92e-6,"MEAN_MOTION_DDOT":0},{"OBJECT_NAME":"STRAND-1","OBJECT_ID":"2013-009E","EPOCH":"2026-04-05T05:32:00.956832","MEAN_MOTION":14.37119172,"ECCENTRICITY":0.00098569,"INCLINATION":98.3906,"RA_OF_ASC_NODE":277.2648,"ARG_OF_PERICENTER":89.8163,"MEAN_ANOMALY":270.4154,"EPHEMERIS_TYPE":0,"CLASSIFICATION_TYPE":"U","NORAD_CAT_ID":39090,"ELEMENT_SET_NO":999,"REV_AT_EPOCH":68658,"BSTAR":0.00018366188,"MEAN_MOTION_DOT":5.03e-6,"MEAN_MOTION_DDOT":0},{"OBJECT_NAME":"ZACUBE-1 (TSHEPISOSAT)","OBJECT_ID":"2013-066B","EPOCH":"2026-04-05T03:19:48.073440","MEAN_MOTION":15.00595153,"ECCENTRICITY":0.00449925,"INCLINATION":97.8146,"RA_OF_ASC_NODE":57.0918,"ARG_OF_PERICENTER":134.2019,"MEAN_ANOMALY":226.2915,"EPHEMERIS_TYPE":0,"CLASSIFICATION_TYPE":"U","NORAD_CAT_ID":39417,"ELEMENT_SET_NO":999,"REV_AT_EPOCH":66977,"BSTAR":0.00048411328,"MEAN_MOTION_DOT":6.185e-5,"MEAN_MOTION_DDOT":0},{"OBJECT_NAME":"GOMX-1","OBJECT_ID":"2013-066Q","EPOCH":"2026-04-05T06:00:29.865888","MEAN_MOTION":14.69206231,"ECCENTRICITY":0.01280483,"INCLINATION":97.6535,"RA_OF_ASC_NODE":300.2983,"ARG_OF_PERICENTER":312.2182,"MEAN_ANOMALY":46.8213,"EPHEMERIS_TYPE":0,"CLASSIFICATION_TYPE":"U","NORAD_CAT_ID":39430,"ELEMENT_SET_NO":999,"REV_AT_EPOCH":65920,"BSTAR":0.00031199222,"MEAN_MOTION_DOT":2.03e-5,"MEAN_MOTION_DDOT":0},{"OBJECT_NAME":"CUBEBUG-2 (LO-74)","OBJECT_ID":"2013-066AA","EPOCH":"2026-04-05T07:15:55.073664","MEAN_MOTION":14.93272372,"ECCENTRICITY":0.00566394,"INCLINATION":97.8853,"RA_OF_ASC_NODE":44.0303,"ARG_OF_PERICENTER":269.2046,"MEAN_ANOMALY":90.2684,"EPHEMERIS_TYPE":0,"CLASSIFICATION_TYPE":"U","NORAD_CAT_ID":39440,"ELEMENT_SET_NO":999,"REV_AT_EPOCH":66611,"BSTAR":0.00051026847,"MEAN_MOTION_DOT":5.449e-5,"MEAN_MOTION_DDOT":0},{"OBJECT_NAME":"FUNCUBE-1 (AO-73)","OBJECT_ID":"2013-066AE","EPOCH":"2026-04-05T04:19:39.579744","MEAN_MOTION":15.08440482,"ECCENTRICITY":0.00390932,"INCLINATION":97.8239,"RA_OF_ASC_NODE":65.1851,"ARG_OF_PERICENTER":92.0712,"MEAN_ANOMALY":268.4993,"EPHEMERIS_TYPE":0,"CLASSIFICATION_TYPE":"U","NORAD_CAT_ID":39444,"ELEMENT_SET_NO":999,"REV_AT_EPOCH":66865,"BSTAR":0.00074890803,"MEAN_MOTION_DOT":0.00011812,"MEAN_MOTION_DDOT":0}]
